STARLINK-4073           
1 52672U 22053S   23295.18724716  .00001509  00000+0  11289-3 0  9999
2 52672  53.2159  97.4676 0001755  92.7552 267.3641 15.08835234 79358
STARLINK-3976           
1 52673U 22053T   23295.16884410  .00000469  00000+0  47566-4 0  9998
2 52673  53.2157  97.5521 0001433  92.1138 268.0018 15.08834849 79340
STARLINK-3936           
1 52674U 22053U   23295.18356051 -.00001801  00000+0 -95124-4 0  9992
2 52674  53.2157  97.4853 0001243  95.9214 264.1920 15.08839018 79356
STARLINK-3934           
1 52675U 22053V   23295.43104554  .00000974  00000+0  79297-4 0  9991
2 52675  53.2146  86.3755 0002002  85.8731 274.2490 15.08837661 79513
STARLINK-4006           
1 52676U 22053W   23295.17252379  .00001466  00000+0  11017-3 0  9994
2 52676  53.2172  97.5360 0001500  92.8987 267.2177 15.08839034 79343
STARLINK-4028           
1 52677U 22053X   23295.42368797  .00001621  00000+0  11991-3 0  9999
2 52677  53.2145  86.4065 0002026  88.1591 271.9634 15.08836003 79518
STARLINK-4074           
1 52678U 22053Y   23295.44209980  .00000589  00000+0  55097-4 0  9998
2 52678  53.2160  86.4287 0001901  89.8601 270.2609 15.08837374 79519
STARLINK-4031           
1 52679U 22053Z   23295.41264955  .00001007  00000+0  81344-4 0  9999
2 52679  53.2152  86.4557 0001960  87.2959 272.8257 15.08835488 79515
STARLINK-3774           
1 52680U 22053AA  23295.42832303  .00000255  00000+0  34132-4 0  9997
2 52680  53.2139  86.3924 0002142  88.7669 271.3568 15.08839615 79511
STARLINK-4068           
1 52681U 22053AB  23295.14400312  .00002548  00000+0  17816-3 0  9994
2 52681  53.2163  87.6639 0001378  84.6336 275.4813 15.08835193 79472
STARLINK-4017           
1 52682U 22053AC  23295.15504496 -.00000086  00000+0  12687-4 0  9992
2 52682  53.2174  87.6141 0002215  89.3649 270.7597 15.08834544 79479
STARLINK-4039           
1 52683U 22053AD  23295.13663323  .00002755  00000+0  19109-3 0  9995
2 52683  53.2174  87.6937 0001528  82.9170 277.1996 15.08847498 79473
STARLINK-4014           
1 52684U 22053AE  23295.41632466  .00002066  00000+0  14786-3 0  9992
2 52684  53.2128  86.4402 0002348  84.8687 275.2573 15.08837084 79528
STARLINK-4029           
1 52685U 22053AF  23295.46048942  .00005019  00000+0  33332-3 0  9997
2 52685  53.2124  86.2329 0002930 115.0742 245.0554 15.08830714 79524
STARLINK-4005           
1 52686U 22053AG  23295.14032260 -.00000080  00000+0  13089-4 0  9991
2 52686  53.2161  87.6756 0002297  72.0141 288.1101 15.08839164 79474
STARLINK-3981           
1 52687U 22053AH  23294.72816026  .00004572  00000+0  30513-3 0  9994
2 52687  53.2145  89.5283 0001560  88.4310 271.6861 15.08842047 79782
STARLINK-4032           
1 52688U 22053AJ  23295.38687217  .00000616  00000+0  56787-4 0  9993
2 52688  53.2157  86.4518 0001818  76.7828 283.3367 15.08834042 79511
STARLINK-4078           
1 52689U 22053AK  23294.84959638  .00002037  00000+0  14602-3 0  9991
2 52689  53.2166  88.9812 0001265  92.2734 267.8402 15.08849771 79434
STARLINK-4035           
1 52690U 22053AL  23295.13296714 -.00000096  00000+0  12102-4 0  9993
2 52690  53.2162  87.7102 0001746  83.4751 276.6440 15.08832322 79474
STARLINK-3945           
1 52691U 22053AM  23295.13395163  .00000581  00000+0  54575-4 0  9990
2 52691  53.2140  87.9546 0001679  82.2575 277.8608 15.08835015 79472
STARLINK-3993           
1 52692U 22053AN  23294.83116170  .00002868  00000+0  19820-3 0  9999
2 52692  53.2156  88.7954 0001876  90.2344 269.8864 15.08849359 79431
STARLINK-3946           
1 52693U 22053AP  23295.16975921  .00002567  00000+0  17929-3 0  9998
2 52693  53.2163  87.5462 0001148  89.7766 270.3358 15.08841386 79486
STARLINK-4072           
1 52694U 22053AQ  23295.44944575  .00000180  00000+0  29409-4 0  9997
2 52694  53.2163  86.2899 0001691  84.6162 275.5023 15.08834483 79525
STARLINK-4041           
1 52695U 22053AR  23295.15639441  .00000065  00000+0  22168-4 0  9996
2 52695  53.2190  92.4047 0001068  88.0905 272.0209 15.08837932 79419
STARLINK-4025           
1 52696U 22053AS  23295.43840531 -.00000294  00000+0 -39119-6 0  9994
2 52696  53.2204  86.3377 0001218 104.0615 256.0512 15.08826841 79526
STARLINK-4018           
1 52697U 22053AT  23295.18314454 -.00001470  00000+0 -74332-4 0  9998
2 52697  53.2160  92.4859 0001315  93.9409 266.1733 15.08830102 79416
STARLINK-4030           
1 52698U 22053AU  23294.86202256 -.00000285  00000+0  18292-6 0  9996
2 52698  53.2156  93.9164 0001248  89.0097 271.1038 15.08838936 79766
STARLINK-3987           
1 52699U 22053AV  23295.10582647  .00000817  00000+0  69445-4 0  9994
2 52699  53.2164  82.8577 0002029  91.9848 268.1376 15.08835076 79533
STARLINK-4034           
1 52700U 22053AW  23294.55654221  .00000327  00000+0  38632-4 0  9993
2 52700  53.2164  94.9419 0001431  95.3799 264.7357 15.08839089 79320
STARLINK-4003           
1 52701U 22053AX  23295.41724964 -.00000842  00000+0 -34854-4 0  9998
2 52701  53.2180  76.4359 0000897  74.4760 285.6331 15.08832019 79654
STARLINK-4033           
1 52702U 22053AY  23294.71851224  .00011575  00000+0  74385-3 0  9996
2 52702  53.2162  94.6014 0000999  93.0107 267.0999 15.08854678 79750
STARLINK-4020           
1 52703U 22053AZ  23295.40620988  .00000420  00000+0  44505-4 0  9994
2 52703  53.2136  76.4965 0002546  91.7456 268.3827 15.08834650 79658
STARLINK-3999           
1 52704U 22053BA  23295.42093447  .00004212  00000+0  28277-3 0  9991
2 52704  53.2169  76.4216 0001001  90.2649 269.8458 15.08808732 79655
STARLINK-3844           
1 52705U 22053BB  23294.68125845  .00000893  00000+0  74187-4 0  9990
2 52705  53.2189  79.7386 0000691  55.9442 304.1616 15.08827943 79974
STARLINK-3970           
1 52706U 22053BC  23294.68491858  .00001685  00000+0  12393-3 0  9991
2 52706  53.2148  79.7220 0001452  85.5295 274.5863 15.08846214 79974
STARLINK-4007           
1 52707U 22053BD  23295.39147688  .00000544  00000+0  52330-4 0  9999
2 52707  53.2149  76.4330 0002253  82.1223 278.0025 15.08833195 79665
STARLINK-3962           
1 52708U 22053BE  23295.10444467  .00001700  00000+0  12493-3 0  9994
2 52708  53.2145  77.8252 0002041  85.6093 274.5133 15.08837168 79618
STARLINK-4091           
1 52830U 22062A   23294.85334779  .00001057  00000+0  84490-4 0  9997
2 52830  53.2180 339.1676 0001568  81.0913 279.0257 15.08840255 74962
STARLINK-4089           
1 52831U 22062B   23294.84500871  .00003743  00000+0  25313-3 0  9997
2 52831  53.2179 339.0023 0001758  90.0733 270.0460 15.08839758 74465
STARLINK-4083           
1 52832U 22062C   23294.84132947  .00000782  00000+0  67215-4 0  9991
2 52832  53.2193 339.0247 0001832  98.5549 261.5651 15.08836460 74465
STARLINK-4086           
1 52833U 22062D   23295.43381233  .00008681  00000+0  56297-3 0  9995
2 52833  53.2188 336.3613 0001661  89.6621 270.4561 15.08833512 74553
STARLINK-4108           
1 52834U 22062E   23295.42645018  .00001218  00000+0  94604-4 0  9993
2 52834  53.2189 336.3989 0001911  95.3774 264.7436 15.08835654 74558
STARLINK-4080           
1 52835U 22062F   23295.42277021  .00001691  00000+0  12430-3 0  9990
2 52835  53.2184 336.4163 0001477  98.9646 261.1514 15.08834656 74552
STARLINK-4043           
1 52836U 22062G   23295.15412606 -.00003807  00000+0 -22119-3 0  9999
2 52836  53.2185 337.6244 0001872 108.5647 251.5549 15.08842781 74510
STARLINK-4036           
1 52837U 22062H   23295.41172728  .00013611  00000+0  87079-3 0  9995
2 52837  53.2171 336.4650 0001319  89.8397 270.2747 15.08875422 74553
STARLINK-4092           
1 52838U 22062J   23295.41539599 -.00002787  00000+0 -15697-3 0  9990
2 52838  53.2176 336.4382 0001886 104.4025 255.7177 15.08856799 75048
STARLINK-4048           
1 52839U 22062K   23295.13940913  .00002304  00000+0  16281-3 0  9999
2 52839  53.2158 337.6856 0001581  98.5132 261.6040 15.08836141 75002
STARLINK-4049           
1 52840U 22062L   23295.40900181  .00005479  00000+0  36195-3 0  9996
2 52840  53.2172 336.4872 0001369  89.5066 270.6083 15.08848740 75044
STARLINK-4065           
1 52841U 22062M   23295.39333015 -.00000778  00000+0 -30820-4 0  9990
2 52841  53.2170 336.5491 0001467  80.9345 279.1813 15.08828209 75048
STARLINK-4046           
1 52842U 22062N   23294.41443205 -.00001049  00000+0 -47775-4 0  9995
2 52842  53.2173 340.8610 0001713 100.3183 259.8003 15.08846469 74407
STARLINK-4188           
1 52843U 22062P   23295.38596580  .00003516  00000+0  23886-3 0  9993
2 52843  53.2186 336.5786 0001661  81.4043 278.7137 15.08842766 75049
STARLINK-4208           
1 52844U 22062Q   23295.40068635  .00005411  00000+0  35775-3 0  9998
2 52844  53.2162 336.5145 0001424  79.7588 280.3565 15.08847584 75041
STARLINK-4168           
1 52845U 22062R   23294.85973822  .00005705  00000+0  37626-3 0  9993
2 52845  53.2174 339.0081 0002010  86.5554 273.5668 15.08840075 74969
STARLINK-4212           
1 52846U 22062S   23295.39057182  .00047395  00000+0  29666-2 0  9991
2 52846  53.2170 336.5693 0001297 104.3186 255.7950 15.08956555 75040
STARLINK-4206           
1 52847U 22062T   23295.11365229  .00001237  00000+0  95809-4 0  9995
2 52847  53.2188 337.8027 0001756  85.7987 274.3206 15.08837013 75000
STARLINK-4202           
1 52848U 22062U   23295.13204937  .00001755  00000+0  12832-3 0  9995
2 52848  53.2178 337.7199 0001580  98.4119 261.7052 15.08838769 75000
STARLINK-4197           
1 52849U 22062V   23294.37856611  .00000502  00000+0  49624-4 0  9992
2 52849  53.2167 331.1002 0002120  99.5868 260.5364 15.08839822 74535
STARLINK-4187           
1 52850U 22062W   23295.11733197  .00002554  00000+0  17850-3 0  9994
2 52850  53.2170 337.7840 0001683  93.7528 266.3657 15.08835120 75004
STARLINK-3809           
1 52851U 22062X   23295.50096029  .00001480  00000+0  11103-3 0  9996
2 52851  53.2190 326.0572 0001509 113.1329 246.9822 15.08844588 75199
